CCSDS_OMM_VERS = 2.0
CREATION_DATE  = 
ORIGINATOR     = 

OBJECT_NAME    = STARLINK-35928
OBJECT_ID      = 2025-265N
CENTER_NAME    = EARTH
REF_FRAME      = TEME
TIME_SYSTEM    = UTC
MEAN_ELEMENT_THEORY = SGP/SGP4

EPOCH          = 2025-12-18T02:55:42.513312
MEAN_MOTION    = 15.50625019
ECCENTRICITY   = .00013747
INCLINATION    = 42.9986
RA_OF_ASC_NODE = 22.4901
ARG_OF_PERICENTER = 271.9059
MEAN_ANOMALY   = 88.1644

EPHEMERIS_TYPE = 0
CLASSIFICATION_TYPE = U
NORAD_CAT_ID   = 66528
ELEMENT_SET_NO = 999
REV_AT_EPOCH   = 459
BSTAR          = .11038933E-2
MEAN_MOTION_DOT = .65065E-3
MEAN_MOTION_DDOT = 0

CCSDS_OMM_VERS = 2.0
CREATION_DATE  = 
ORIGINATOR     = 

OBJECT_NAME    = STARLINK-35933
OBJECT_ID      = 2025-265P
CENTER_NAME    = EARTH
REF_FRAME      = TEME
TIME_SYSTEM    = UTC
MEAN_ELEMENT_THEORY = SGP/SGP4

EPOCH          = 2025-12-18T02:18:32.533632
MEAN_MOTION    = 15.40709507
ECCENTRICITY   = .000124
INCLINATION    = 43.0015
RA_OF_ASC_NODE = 23.1622
ARG_OF_PERICENTER = 253.0252
MEAN_ANOMALY   = 107.0469

EPHEMERIS_TYPE = 0
CLASSIFICATION_TYPE = U
NORAD_CAT_ID   = 66529
ELEMENT_SET_NO = 999
REV_AT_EPOCH   = 458
BSTAR          = .10675699E-2
MEAN_MOTION_DOT = .44566E-3
MEAN_MOTION_DDOT = 0

CCSDS_OMM_VERS = 2.0
CREATION_DATE  = 
ORIGINATOR     = 

OBJECT_NAME    = STARLINK-35961
OBJECT_ID      = 2025-265Q
CENTER_NAME    = EARTH
REF_FRAME      = TEME
TIME_SYSTEM    = UTC
MEAN_ELEMENT_THEORY = SGP/SGP4

EPOCH          = 2025-12-17T12:11:53.028960
MEAN_MOTION    = 15.40685219
ECCENTRICITY   = .00007762
INCLINATION    = 43.0003
RA_OF_ASC_NODE = 26.4907
ARG_OF_PERICENTER = 291.5722
MEAN_ANOMALY   = 68.5051

EPHEMERIS_TYPE = 0
CLASSIFICATION_TYPE = U
NORAD_CAT_ID   = 66530
ELEMENT_SET_NO = 999
REV_AT_EPOCH   = 449
BSTAR          = .12642944E-2
MEAN_MOTION_DOT = .52849E-3
MEAN_MOTION_DDOT = 0

CCSDS_OMM_VERS = 2.0
CREATION_DATE  = 
ORIGINATOR     = 

OBJECT_NAME    = STARLINK-35960
OBJECT_ID      = 2025-265R
CENTER_NAME    = EARTH
REF_FRAME      = TEME
TIME_SYSTEM    = UTC
MEAN_ELEMENT_THEORY = SGP/SGP4

EPOCH          = 2025-12-18T06:45:40.200192
MEAN_MOTION    = 15.40712881
ECCENTRICITY   = .0001453
INCLINATION    = 43.0012
RA_OF_ASC_NODE = 21.9731
ARG_OF_PERICENTER = 253.3902
MEAN_ANOMALY   = 106.6795

EPHEMERIS_TYPE = 0
CLASSIFICATION_TYPE = U
NORAD_CAT_ID   = 66531
ELEMENT_SET_NO = 999
REV_AT_EPOCH   = 461
BSTAR          = .10792444E-2
MEAN_MOTION_DOT = .45065E-3
MEAN_MOTION_DDOT = 0

CCSDS_OMM_VERS = 2.0
CREATION_DATE  = 
ORIGINATOR     = 

OBJECT_NAME    = STARLINK-35914
OBJECT_ID      = 2025-265S
CENTER_NAME    = EARTH
REF_FRAME      = TEME
TIME_SYSTEM    = UTC
MEAN_ELEMENT_THEORY = SGP/SGP4

EPOCH          = 2025-12-18T03:32:30.146496
MEAN_MOTION    = 15.40722847
ECCENTRICITY   = .00011767
INCLINATION    = 43.0014
RA_OF_ASC_NODE = 22.6846
ARG_OF_PERICENTER = 247.6775
MEAN_ANOMALY   = 112.3957

EPHEMERIS_TYPE = 0
CLASSIFICATION_TYPE = U
NORAD_CAT_ID   = 66532
ELEMENT_SET_NO = 999
REV_AT_EPOCH   = 459
BSTAR          = .49121103E-3
MEAN_MOTION_DOT = .20285E-3
MEAN_MOTION_DDOT = 0

CCSDS_OMM_VERS = 2.0
CREATION_DATE  = 
ORIGINATOR     = 

OBJECT_NAME    = STARLINK-35707
OBJECT_ID      = 2025-265T
CENTER_NAME    = EARTH
REF_FRAME      = TEME
TIME_SYSTEM    = UTC
MEAN_ELEMENT_THEORY = SGP/SGP4

EPOCH          = 2025-12-18T08:00:01.999872
MEAN_MOTION    = 15.40681297
ECCENTRICITY   = .00011863
INCLINATION    = 43.0007
RA_OF_ASC_NODE = 21.5262
ARG_OF_PERICENTER = 269.2743
MEAN_ANOMALY   = 79.7716

EPHEMERIS_TYPE = 0
CLASSIFICATION_TYPE = U
NORAD_CAT_ID   = 66533
ELEMENT_SET_NO = 999
REV_AT_EPOCH   = 589
BSTAR          = .38648883E-3
MEAN_MOTION_DOT = .15864E-3
MEAN_MOTION_DDOT = 0

CCSDS_OMM_VERS = 2.0
CREATION_DATE  = 
ORIGINATOR     = 

OBJECT_NAME    = STARLINK-35976
OBJECT_ID      = 2025-265U
CENTER_NAME    = EARTH
REF_FRAME      = TEME
TIME_SYSTEM    = UTC
MEAN_ELEMENT_THEORY = SGP/SGP4

EPOCH          = 2025-12-18T08:00:01.999872
MEAN_MOTION    = 15.40674165
ECCENTRICITY   = .0001106
INCLINATION    = 43.0002
RA_OF_ASC_NODE = 21.4061
ARG_OF_PERICENTER = 275.1513
MEAN_ANOMALY   = 123.6708

EPHEMERIS_TYPE = 0
CLASSIFICATION_TYPE = U
NORAD_CAT_ID   = 66534
ELEMENT_SET_NO = 999
REV_AT_EPOCH   = 589
BSTAR          = .39723299E-3
MEAN_MOTION_DOT = .16311E-3
MEAN_MOTION_DDOT = 0

CCSDS_OMM_VERS = 2.0
CREATION_DATE  = 
ORIGINATOR     = 

OBJECT_NAME    = STARLINK-35514
OBJECT_ID      = 2025-265V
CENTER_NAME    = EARTH
REF_FRAME      = TEME
TIME_SYSTEM    = UTC
MEAN_ELEMENT_THEORY = SGP/SGP4

EPOCH          = 2025-12-18T08:00:01.999872
MEAN_MOTION    = 15.40678713
ECCENTRICITY   = .0001527
INCLINATION    = 43.0000
RA_OF_ASC_NODE = 21.3759
ARG_OF_PERICENTER = 270.8582
MEAN_ANOMALY   = 140.3938

EPHEMERIS_TYPE = 0
CLASSIFICATION_TYPE = U
NORAD_CAT_ID   = 66535
ELEMENT_SET_NO = 999
REV_AT_EPOCH   = 589
BSTAR          = .40850238E-3
MEAN_MOTION_DOT = .16786E-3
MEAN_MOTION_DDOT = 0

CCSDS_OMM_VERS = 2.0
CREATION_DATE  = 
ORIGINATOR     = 

OBJECT_NAME    = STARLINK-35640
OBJECT_ID      = 2025-265W
CENTER_NAME    = EARTH
REF_FRAME      = TEME
TIME_SYSTEM    = UTC
MEAN_ELEMENT_THEORY = SGP/SGP4

EPOCH          = 2025-12-18T08:00:01.999872
MEAN_MOTION    = 15.43629897
ECCENTRICITY   = .00016208
INCLINATION    = 43.0002
RA_OF_ASC_NODE = 21.2645
ARG_OF_PERICENTER = 282.4084
MEAN_ANOMALY   = 175.0727

EPHEMERIS_TYPE = 0
CLASSIFICATION_TYPE = U
NORAD_CAT_ID   = 66536
ELEMENT_SET_NO = 999
REV_AT_EPOCH   = 587
BSTAR          = -.4655886E-1
MEAN_MOTION_DOT = -.1921752E-1
MEAN_MOTION_DDOT = 0

CCSDS_OMM_VERS = 2.0
CREATION_DATE  = 
ORIGINATOR     = 

OBJECT_NAME    = STARLINK-35582
OBJECT_ID      = 2025-265X
CENTER_NAME    = EARTH
REF_FRAME      = TEME
TIME_SYSTEM    = UTC
MEAN_ELEMENT_THEORY = SGP/SGP4

EPOCH          = 2025-12-18T02:51:03.621024
MEAN_MOTION    = 15.50922723
ECCENTRICITY   = .00089647
INCLINATION    = 42.9966
RA_OF_ASC_NODE = 22.4620
ARG_OF_PERICENTER = 222.3935
MEAN_ANOMALY   = 137.6234

EPHEMERIS_TYPE = 0
CLASSIFICATION_TYPE = U
NORAD_CAT_ID   = 66537
ELEMENT_SET_NO = 999
REV_AT_EPOCH   = 459
BSTAR          = .17052486E-2
MEAN_MOTION_DOT = .102406E-2
MEAN_MOTION_DDOT = 0

CCSDS_OMM_VERS = 2.0
CREATION_DATE  = 
ORIGINATOR     = 

OBJECT_NAME    = STARLINK-35577
OBJECT_ID      = 2025-265Y
CENTER_NAME    = EARTH
REF_FRAME      = TEME
TIME_SYSTEM    = UTC
MEAN_ELEMENT_THEORY = SGP/SGP4

EPOCH          = 2025-12-17T09:50:26.132352
MEAN_MOTION    = 15.50591082
ECCENTRICITY   = .00013928
INCLINATION    = 43.0010
RA_OF_ASC_NODE = 26.6049
ARG_OF_PERICENTER = 263.8064
MEAN_ANOMALY   = 96.2638

EPHEMERIS_TYPE = 0
CLASSIFICATION_TYPE = U
NORAD_CAT_ID   = 66538
ELEMENT_SET_NO = 999
REV_AT_EPOCH   = 448
BSTAR          = .15140009E-2
MEAN_MOTION_DOT = .89538E-3
MEAN_MOTION_DDOT = 0

CCSDS_OMM_VERS = 2.0
CREATION_DATE  = 
ORIGINATOR     = 

OBJECT_NAME    = STARLINK-35697
OBJECT_ID      = 2025-265Z
CENTER_NAME    = EARTH
REF_FRAME      = TEME
TIME_SYSTEM    = UTC
MEAN_ELEMENT_THEORY = SGP/SGP4

EPOCH          = 2025-12-18T02:50:16.521792
MEAN_MOTION    = 15.50598942
ECCENTRICITY   = .00007542
INCLINATION    = 42.9998
RA_OF_ASC_NODE = 22.4596
ARG_OF_PERICENTER = 259.3636
MEAN_ANOMALY   = 100.7140

EPHEMERIS_TYPE = 0
CLASSIFICATION_TYPE = U
NORAD_CAT_ID   = 66539
ELEMENT_SET_NO = 999
REV_AT_EPOCH   = 459
BSTAR          = .97005248E-3
MEAN_MOTION_DOT = .57022E-3
MEAN_MOTION_DDOT = 0

