STARLINK-35928          
1 66528U 25265N   25352.12201983  .00065065  00000+0  11039-2 0  9997
2 66528  42.9986  22.4901 0001374 271.9059  88.1644 15.50625019  4596
STARLINK-35933          
1 66529U 25265P   25352.09620988  .00044566  00000+0  10676-2 0  9993
2 66529  43.0015  23.1622 0001240 253.0252 107.0469 15.40709507  4587
STARLINK-35961          
1 66530U 25265Q   25351.50825265  .00052849  00000+0  12643-2 0  9994
2 66530  43.0003  26.4907 0000776 291.5722  68.5051 15.40685219  4491
STARLINK-35960          
1 66531U 25265R   25352.28171528  .00045065  00000+0  10792-2 0  9992
2 66531  43.0012  21.9731 0001453 253.3902 106.6795 15.40712881  4615
STARLINK-35914          
1 66532U 25265S   25352.14757114  .00020285  00000+0  49121-3 0  9995
2 66532  43.0014  22.6846 0001176 247.6775 112.3957 15.40722847  4593
STARLINK-35707          
1 66533U 25265T   25352.33335648  .00015864  00000+0  38649-3 0  9991
2 66533  43.0007  21.5262 0001186 269.2743  79.7716 15.40681297  5898
STARLINK-35976          
1 66534U 25265U   25352.33335648  .00016311  00000+0  39723-3 0  9994
2 66534  43.0002  21.4061 0001106 275.1513 123.6708 15.40674165  5899
STARLINK-35514          
1 66535U 25265V   25352.33335648  .00016786  00000+0  40850-3 0  9994
2 66535  43.0000  21.3759 0001527 270.8582 140.3938 15.40678713  5890
STARLINK-35640          
1 66536U 25265W   25352.33335648 -.01921752  00000+0 -46559-1 0  9996
2 66536  43.0002  21.2645 0001620 282.4084 175.0727 15.43629897  5877
STARLINK-35582          
1 66537U 25265X   25352.11879191  .00102406  00000+0  17052-2 0  9990
2 66537  42.9966  22.4620 0008964 222.3935 137.6234 15.50922723  4594
STARLINK-35577          
1 66538U 25265Y   25351.41002468  .00089538  00000+0  15140-2 0  9994
2 66538  43.0010  26.6049 0001392 263.8064  96.2638 15.50591082  4485
STARLINK-35697          
1 66539U 25265Z   25352.11824678  .00057022  00000+0  97005-3 0  9992
2 66539  42.9998  22.4596 0000754 259.3636 100.7140 15.50598942  4599
